ONEWEB-0593             
1 54659U 22166T   23265.74807277  .00000071  00000+0  14004-3 0  9995
2 54659  87.9171  82.7641 0001484  96.4761 263.6542 13.21824107 40115
ONEWEB-0594             
1 54660U 22166U   23265.53990723  .00000062  00000+0  11845-3 0  9993
2 54660  87.9173  82.8039 0001890  90.9143 269.2208 13.21827295 39632
ONEWEB-0595             
1 54661U 22166V   23265.74387649  .00000100  00000+0  20945-3 0  9998
2 54661  87.9167  82.7562 0001802  79.5581 280.5756 13.21824517 40100
ONEWEB-0596             
1 54662U 22166W   23265.56724482  .00000053  00000+0  96025-4 0  9999
2 54662  87.9170  82.7928 0001242  91.6572 268.4704 13.21828423 39616
ONEWEB-0597             
1 54663U 22166X   23265.54832163  .00000047  00000+0  83222-4 0  9992
2 54663  87.9172  82.7973 0001545 102.6843 257.4463 13.21826911 39619
ONEWEB-0600             
1 54664U 22166Y   23265.52940732 -.00000620  00000+0 -15329-2 0  9993
2 54664  87.9175  82.8497 0001933  95.3505 264.7850 13.21828673 39583
ONEWEB-0601             
1 54665U 22166Z   23265.52204297  .00000125  00000+0  27189-3 0  9999
2 54665  87.9170  82.8014 0001223  90.3799 269.7475 13.21827520 39775
ONEWEB-0602             
1 54666U 22166AA  23265.56514908  .00000003  00000+0 -24499-4 0  9995
2 54666  87.9172  82.8011 0001504  95.4330 264.6975 13.21825852 39623
